[
    {
        "OBJECT_NAME": "COSMOS 2081 [GLONASS]",
        "OBJECT_ID": "1990-045C",
        "EPOCH": "2025-03-03T09:10:04.985760",
        "MEAN_MOTION": 2.1310461,
        "ECCENTRICITY": 0.004297,
        "INCLINATION": 65.0144,
        "RA_OF_ASC_NODE": 324.9187,
        "ARG_OF_PERICENTER": 217.0532,
        "MEAN_ANOMALY": 252.766,
        "EPHEMERIS_TYPE": 0,
        "CLASSIFICATION_TYPE": "U",
        "NORAD_CAT_ID": 20621,
        "ELEMENT_SET_NO": 999,
        "REV_AT_EPOCH": 27065,
        "BSTAR": 0,
        "MEAN_MOTION_DOT": -5.1e-07,
        "MEAN_MOTION_DDOT": 0
    },
    {
        "OBJECT_NAME": "COSMOS 2110 [GLONASS]",
        "OBJECT_ID": "1990-110B",
        "EPOCH": "2025-03-02T07:54:03.526272",
        "MEAN_MOTION": 2.13101324,
        "ECCENTRICITY": 0.0043712,
        "INCLINATION": 64.6688,
        "RA_OF_ASC_NODE": 87.7311,
        "ARG_OF_PERICENTER": 203.1475,
        "MEAN_ANOMALY": 243.7986,
        "EPHEMERIS_TYPE": 0,
        "CLASSIFICATION_TYPE": "U",
        "NORAD_CAT_ID": 21007,
        "ELEMENT_SET_NO": 999,
        "REV_AT_EPOCH": 26641,
        "BSTAR": 0,
        "MEAN_MOTION_DOT": 3.6e-07,
        "MEAN_MOTION_DDOT": 0
    },
    {
        "OBJECT_NAME": "COSMOS 2111 [GLONASS]",
        "OBJECT_ID": "1990-110C",
        "EPOCH": "2025-03-03T09:26:46.580352",
        "MEAN_MOTION": 2.13098532,
        "ECCENTRICITY": 0.0018542,
        "INCLINATION": 64.6538,
        "RA_OF_ASC_NODE": 87.3584,
        "ARG_OF_PERICENTER": 239.3158,
        "MEAN_ANOMALY": 298.1246,
        "EPHEMERIS_TYPE": 0,
        "CLASSIFICATION_TYPE": "U",
        "NORAD_CAT_ID": 21008,
        "ELEMENT_SET_NO": 999,
        "REV_AT_EPOCH": 26636,
        "BSTAR": 0,
        "MEAN_MOTION_DOT": 2.5e-07,
        "MEAN_MOTION_DDOT": 0
    },
    {
        "OBJECT_NAME": "COSMOS 2140 [GLONASS]",
        "OBJECT_ID": "1991-025B",
        "EPOCH": "2025-03-03T06:24:14.479200",
        "MEAN_MOTION": 2.13100803,
        "ECCENTRICITY": 0.0025428,
        "INCLINATION": 64.6509,
        "RA_OF_ASC_NODE": 320.7744,
        "ARG_OF_PERICENTER": 218.5813,
        "MEAN_ANOMALY": 331.4907,
        "EPHEMERIS_TYPE": 0,
        "CLASSIFICATION_TYPE": "U",
        "NORAD_CAT_ID": 21217,
        "ELEMENT_SET_NO": 999,
        "REV_AT_EPOCH": 26390,
        "BSTAR": 0,
        "MEAN_MOTION_DOT": -4.5e-07,
        "MEAN_MOTION_DDOT": 0
    },
    {
        "OBJECT_NAME": "COSMOS 2141 [GLONASS]",
        "OBJECT_ID": "1991-025C",
        "EPOCH": "2025-02-28T08:26:45.320352",
        "MEAN_MOTION": 2.13103331,
        "ECCENTRICITY": 0.0004255,
        "INCLINATION": 64.6454,
        "RA_OF_ASC_NODE": 320.7776,
        "ARG_OF_PERICENTER": 244.0005,
        "MEAN_ANOMALY": 216.2558,
        "EPHEMERIS_TYPE": 0,
        "CLASSIFICATION_TYPE": "U",
        "NORAD_CAT_ID": 21218,
        "ELEMENT_SET_NO": 999,
        "REV_AT_EPOCH": 26387,
        "BSTAR": 0,
        "MEAN_MOTION_DOT": -2.8e-07,
        "MEAN_MOTION_DDOT": 0
    },
    {
        "OBJECT_NAME": "COSMOS 2177 [GLONASS]",
        "OBJECT_ID": "1992-005A",
        "EPOCH": "2025-03-03T08:19:06.608928",
        "MEAN_MOTION": 2.13101155,
        "ECCENTRICITY": 0.0007745,
        "INCLINATION": 64.6123,
        "RA_OF_ASC_NODE": 86.1448,
        "ARG_OF_PERICENTER": 197.3834,
        "MEAN_ANOMALY": 177.1826,
        "EPHEMERIS_TYPE": 0,
        "CLASSIFICATION_TYPE": "U",
        "NORAD_CAT_ID": 21853,
        "ELEMENT_SET_NO": 999,
        "REV_AT_EPOCH": 25752,
        "BSTAR": 0,
        "MEAN_MOTION_DOT": 2.5e-07,
        "MEAN_MOTION_DDOT": 0
    },
    {
        "OBJECT_NAME": "COSMOS 2179 [GLONASS]",
        "OBJECT_ID": "1992-005C",
        "EPOCH": "2025-03-02T08:28:24.426336",
        "MEAN_MOTION": 2.13102525,
        "ECCENTRICITY": 0.001346,
        "INCLINATION": 64.6154,
        "RA_OF_ASC_NODE": 86.2421,
        "ARG_OF_PERICENTER": 244.2008,
        "MEAN_ANOMALY": 192.3757,
        "EPHEMERIS_TYPE": 0,
        "CLASSIFICATION_TYPE": "U",
        "NORAD_CAT_ID": 21855,
        "ELEMENT_SET_NO": 999,
        "REV_AT_EPOCH": 25729,
        "BSTAR": 0,
        "MEAN_MOTION_DOT": 3.4e-07,
        "MEAN_MOTION_DDOT": 0
    },
    {
        "OBJECT_NAME": "COSMOS 2206 [GLONASS]",
        "OBJECT_ID": "1992-047A",
        "EPOCH": "2025-03-03T15:16:54.863040",
        "MEAN_MOTION": 2.13107321,
        "ECCENTRICITY": 0.0010208,
        "INCLINATION": 64.4462,
        "RA_OF_ASC_NODE": 318.6677,
        "ARG_OF_PERICENTER": 252.9092,
        "MEAN_ANOMALY": 289.221,
        "EPHEMERIS_TYPE": 0,
        "CLASSIFICATION_TYPE": "U",
        "NORAD_CAT_ID": 22056,
        "ELEMENT_SET_NO": 999,
        "REV_AT_EPOCH": 25365,
        "BSTAR": 0,
        "MEAN_MOTION_DOT": -4.4e-07,
        "MEAN_MOTION_DDOT": 0
    },
    {
        "OBJECT_NAME": "COSMOS 2204 [GLONASS]",
        "OBJECT_ID": "1992-047B",
        "EPOCH": "2025-03-02T15:16:58.117728",
        "MEAN_MOTION": 2.13102992,
        "ECCENTRICITY": 0.0016632,
        "INCLINATION": 64.4627,
        "RA_OF_ASC_NODE": 318.8951,
        "ARG_OF_PERICENTER": 344.3531,
        "MEAN_ANOMALY": 194.1731,
        "EPHEMERIS_TYPE": 0,
        "CLASSIFICATION_TYPE": "U",
        "NORAD_CAT_ID": 22057,
        "ELEMENT_SET_NO": 999,
        "REV_AT_EPOCH": 25348,
        "BSTAR": 0,
        "MEAN_MOTION_DOT": -3.8e-07,
        "MEAN_MOTION_DDOT": 0
    },
    {
        "OBJECT_NAME": "COSMOS 2205 [GLONASS]",
        "OBJECT_ID": "1992-047C",
        "EPOCH": "2025-03-03T12:27:47.947680",
        "MEAN_MOTION": 2.13102852,
        "ECCENTRICITY": 0.0018466,
        "INCLINATION": 64.4561,
        "RA_OF_ASC_NODE": 318.8024,
        "ARG_OF_PERICENTER": 224.7759,
        "MEAN_ANOMALY": 319.7488,
        "EPHEMERIS_TYPE": 0,
        "CLASSIFICATION_TYPE": "U",
        "NORAD_CAT_ID": 22058,
        "ELEMENT_SET_NO": 999,
        "REV_AT_EPOCH": 25350,
        "BSTAR": 0,
        "MEAN_MOTION_DOT": -4.4e-07,
        "MEAN_MOTION_DDOT": 0
    }
]