20621,COSMOS 2081 [GLONASS],1990,675.72,-1.0,-,65.01,Inactive,0,MEO,Kazakhstan,Russia/USSR,Unknown,Unknown,Unknown,1 20621U 90045C   25062.38200215 -.00000051  00000+0  00000+0 0  9990,2 20621  65.0144 324.9187 0042970 217.0532 252.7660  2.13104610270655,2.1310461,0.004297,MEO
21007,COSMOS 2110 [GLONASS],1990,675.73,-1.0,-,64.67,Inactive,0,MEO,Kazakhstan,Russia/USSR,Unknown,Unknown,Unknown,1 21007U 90110B   25061.32920748  .00000036  00000+0  00000+0 0  9997,2 21007  64.6688  87.7311 0043712 203.1475 243.7986  2.13101324266411,2.13101324,0.0043712,MEO
21008,COSMOS 2111 [GLONASS],1990,675.74,-1.0,-,64.65,Inactive,0,MEO,Kazakhstan,Russia/USSR,Unknown,Unknown,Unknown,1 21008U 90110C   25062.39359468  .00000025  00000+0  00000+0 0  9999,2 21008  64.6538  87.3584 0018542 239.3158 298.1246  2.13098532266369,2.13098532,0.0018542,MEO
21217,COSMOS 2140 [GLONASS],1991,675.74,-1.0,-,64.65,Inactive,0,MEO,Kazakhstan,Russia/USSR,Unknown,Unknown,Unknown,1 21217U 91025B   25062.26683425 -.00000045  00000+0  00000+0 0  9999,2 21217  64.6509 320.7744 0025428 218.5813 331.4907  2.13100803263906,2.13100803,0.0025428,MEO
21218,COSMOS 2141 [GLONASS],1991,675.73,-1.0,-,64.65,Inactive,0,MEO,Kazakhstan,Russia/USSR,Unknown,Unknown,Unknown,1 21218U 91025C   25059.35191343 -.00000028  00000+0  00000+0 0  9990,2 21218  64.6454 320.7776 0004255 244.0005 216.2558  2.13103331263870,2.13103331,0.0004255,MEO
21853,COSMOS 2177 [GLONASS],1992,675.74,-1.0,-,64.61,Inactive,0,MEO,Kazakhstan,Russia/USSR,Unknown,Unknown,Unknown,1 21853U 92005A   25062.34660427  .00000025  00000+0  00000+0 0  9997,2 21853  64.6123  86.1448 0007745 197.3834 177.1826  2.13101155257524,2.13101155,0.0007745,MEO
21855,COSMOS 2179 [GLONASS],1992,675.73,-1.0,-,64.62,Inactive,0,MEO,Kazakhstan,Russia/USSR,Unknown,Unknown,Unknown,1 21855U 92005C   25061.35306049  .00000034  00000+0  00000+0 0  9996,2 21855  64.6154  86.2421 0013460 244.2008 192.3757  2.13102525257296,2.13102525,0.001346,MEO
22056,COSMOS 2206 [GLONASS],1992,675.72,-1.0,-,64.45,Inactive,0,MEO,Kazakhstan,Russia/USSR,Unknown,Unknown,Unknown,1 22056U 92047A   25062.63674610 -.00000044  00000+0  00000+0 0  9992,2 22056  64.4462 318.6677 0010208 252.9092 289.2210  2.13107321253599,2.13107321,0.0010208,MEO
22057,COSMOS 2204 [GLONASS],1992,675.73,-1.0,-,64.46,Inactive,0,MEO,Kazakhstan,Russia/USSR,Unknown,Unknown,Unknown,1 22057U 92047B   25061.63678377 -.00000038  00000+0  00000+0 0  9999,2 22057  64.4627 318.8951 0016632 344.3531 194.1731  2.13102992253480,2.13102992,0.0016632,MEO
22058,COSMOS 2205 [GLONASS],1992,675.73,-1.0,-,64.46,Inactive,0,MEO,Kazakhstan,Russia/USSR,Unknown,Unknown,Unknown,1 22058U 92047C   25062.51930495 -.00000044  00000+0  00000+0 0  9997,2 22058  64.4561 318.8024 0018466 224.7759 319.7488  2.13102852253501,2.13102852,0.0018466,MEO
